0 MOLNIYA 1-86
1 22671U 93035A   24146.08274747  .00000982  00000-0  80102-3 0  9997
2 22671  63.0190 184.3914 4890632  18.3633 354.5194  5.63288268392086
0 FREGAT DEB
1 45649U 11037AR  24146.54411414  .00020380  00000-0  32551-1 0  9991
2 45649  51.4685 229.6672 1136590 335.0708  19.9091 12.04378652167612
0 ATLAS 5 CENTAUR DEB
1 46642U 14055CS  24138.41928360 -.00000141  00000-0  00000-0 0  9995
2 46642  19.9935 233.8823 4463940   7.4640 357.4246  1.83096473 24132
0 THORAD AGENA D DEB
1 19290U 70025PV  24146.29750009  .00000568  00000-0  84280-3 0  9998
2 19290  99.8275  82.8204 0026656 319.7023 193.7820 13.58310211936291
0 COSMOS 1859
1 18120U 87051H   24146.56122587 -.00000016  00000-0 -21492-5 0  9998
2 18120  74.0037 317.0003 0056775  76.2120 356.3177 12.57935646696604
